sat45030
1 45030U 13076R   20046.59204588  .00006325  00000-0  37711-1 0  9998
2 45030  82.4577 170.6151 0097620 305.9999  53.2067 12.55986908  4196
